{
  "type": "FeatureCollection",
  "features": [
    {
      "type": "Feature",
      "properties": {
        "norad_id": 39773,
        "name": "EUTELSAT 3B",
        "group": "eutelsat",
        "lat": 0.08495184615125756,
        "lon": 75.91330826922638,
        "alt_km": 35801.74997211252,
        "timestamp": "2025-12-22T22:44:20.622395+00:00",
        "meta_object_name": "EUTELSAT 3B",
        "meta_object_id": "2014-030A",
        "meta_epoch": "2025-12-22T08:02:37.548384",
        "meta_mean_motion": 1.00274,
        "meta_eccentricity": 0.00042468,
        "meta_inclination": 0.0624,
        "meta_ra_of_asc_node": 343.584,
        "meta_arg_of_pericenter": 247.7971,
        "meta_mean_anomaly": 343.5213,
        "meta_ephemeris_type": 0,
        "meta_classification_type": "U",
        "meta_norad_cat_id": 39773,
        "meta_element_set_no": 999,
        "meta_rev_at_epoch": 4229,
        "meta_bstar": 0,
        "meta_mean_motion_dot": 4.2e-07,
        "meta_mean_motion_ddot": 0,
        "tle_line1": "1 39773U 14030A   25356.33515681  .00000042  00000+0  00000+0 0  9994",
        "tle_line2": "2 39773   0.0624 343.5840 0004246 247.7971 343.5213  1.00274000 42295"
      },
      "geometry": {
        "type": "Point",
        "coordinates": [
          75.91330826922638,
          0.08495184615125756
        ]
      }
    },
    {
      "type": "Feature",
      "properties": {
        "norad_id": 40425,
        "name": "EUTELSAT 115 WEST B",
        "group": "eutelsat",
        "lat": 0.007031477445621673,
        "lon": -42.09421751191359,
        "alt_km": 35785.57021469328,
        "timestamp": "2025-12-22T22:44:20.622407+00:00",
        "meta_object_name": "EUTELSAT 115 WEST B",
        "meta_object_id": "2015-010B",
        "meta_epoch": "2025-12-22T10:47:31.232256",
        "meta_mean_motion": 1.00269855,
        "meta_eccentricity": 2.522e-05,
        "meta_inclination": 0.0093,
        "meta_ra_of_asc_node": 153.5517,
        "meta_arg_of_pericenter": 151.4988,
        "meta_mean_anomaly": 193.1685,
        "meta_ephemeris_type": 0,
        "meta_classification_type": "U",
        "meta_norad_cat_id": 40425,
        "meta_element_set_no": 999,
        "meta_rev_at_epoch": 3962,
        "meta_bstar": 0,
        "meta_mean_motion_dot": -3e-08,
        "meta_mean_motion_ddot": 0,
        "tle_line1": "1 40425U 15010B   25356.44966704 -.00000003  00000+0  00000+0 0  9995",
        "tle_line2": "2 40425   0.0093 153.5517 0000252 151.4988 193.1685  1.00269855 39620"
      },
      "geometry": {
        "type": "Point",
        "coordinates": [
          -42.09421751191359,
          0.007031477445621673
        ]
      }
    },
    {
      "type": "Feature",
      "properties": {
        "norad_id": 40875,
        "name": "EUTELSAT 8 WEST B",
        "group": "eutelsat",
        "lat": 0.07790342606980406,
        "lon": 64.84629030252125,
        "alt_km": 35802.27202824421,
        "timestamp": "2025-12-22T22:44:20.622435+00:00",
        "meta_object_name": "EUTELSAT 8 WEST B",
        "meta_object_id": "2015-039B",
        "meta_epoch": "2025-12-22T06:16:47.683200",
        "meta_mean_motion": 1.00271154,
        "meta_eccentricity": 0.00042547,
        "meta_inclination": 0.0635,
        "meta_ra_of_asc_node": 2.3398,
        "meta_arg_of_pericenter": 269.6982,
        "meta_mean_anomaly": 265.2311,
        "meta_ephemeris_type": 0,
        "meta_classification_type": "U",
        "meta_norad_cat_id": 40875,
        "meta_element_set_no": 999,
        "meta_rev_at_epoch": 3788,
        "meta_bstar": 0,
        "meta_mean_motion_dot": -4.4e-07,
        "meta_mean_motion_ddot": 0,
        "tle_line1": "1 40875U 15039B   25356.26166300 -.00000044  00000+0  00000+0 0  9994",
        "tle_line2": "2 40875   0.0635   2.3398 0004254 269.6982 265.2311  1.00271154 37889"
      },
      "geometry": {
        "type": "Point",
        "coordinates": [
          64.84629030252125,
          0.07790342606980406
        ]
      }
    },
    {
      "type": "Feature",
      "properties": {
        "norad_id": 41310,
        "name": "EUTELSAT 9B",
        "group": "eutelsat",
        "lat": 0.03128095380903348,
        "lon": 81.84233610736855,
        "alt_km": 35804.18071835184,
        "timestamp": "2025-12-22T22:44:20.622449+00:00",
        "meta_object_name": "EUTELSAT 9B",
        "meta_object_id": "2016-005A",
        "meta_epoch": "2025-12-22T03:54:38.524896",
        "meta_mean_motion": 1.00273048,
        "meta_eccentricity": 0.0004511,
        "meta_inclination": 0.0657,
        "meta_ra_of_asc_node": 72.7349,
        "meta_arg_of_pericenter": 203.4472,
        "meta_mean_anomaly": 242.4516,
        "meta_ephemeris_type": 0,
        "meta_classification_type": "U",
        "meta_norad_cat_id": 41310,
        "meta_element_set_no": 999,
        "meta_rev_at_epoch": 3634,
        "meta_bstar": 0,
        "meta_mean_motion_dot": 8.4e-07,
        "meta_mean_motion_ddot": 0,
        "tle_line1": "1 41310U 16005A   25356.16294589  .00000084  00000+0  00000+0 0  9996",
        "tle_line2": "2 41310   0.0657  72.7349 0004511 203.4472 242.4516  1.00273048 36349"
      },
      "geometry": {
        "type": "Point",
        "coordinates": [
          81.84233610736855,
          0.03128095380903348
        ]
      }
    },
    {
      "type": "Feature",
      "properties": {
        "norad_id": 41382,
        "name": "EUTELSAT 65 WEST A",
        "group": "eutelsat",
        "lat": 0.02813158799396694,
        "lon": 7.661784662050028,
        "alt_km": 35786.269065116554,
        "timestamp": "2025-12-22T22:44:20.622461+00:00",
        "meta_object_name": "EUTELSAT 65 WEST A",
        "meta_object_id": "2016-014A",
        "meta_epoch": "2025-12-22T11:08:34.740672",
        "meta_mean_motion": 1.00273209,
        "meta_eccentricity": 0.00021765,
        "meta_inclination": 0.051,
        "meta_ra_of_asc_node": 337.2901,
        "meta_arg_of_pericenter": 297.0272,
        "meta_mean_anomaly": 278.9069,
        "meta_ephemeris_type": 0,
        "meta_classification_type": "U",
        "meta_norad_cat_id": 41382,
        "meta_element_set_no": 999,
        "meta_rev_at_epoch": 3576,
        "meta_bstar": 0,
        "meta_mean_motion_dot": -2.55e-06,
        "meta_mean_motion_ddot": 0,
        "tle_line1": "1 41382U 16014A   25356.46429098 -.00000255  00000+0  00000+0 0  9994",
        "tle_line2": "2 41382   0.0510 337.2901 0002176 297.0272 278.9069  1.00273209 35762"
      },
      "geometry": {
        "type": "Point",
        "coordinates": [
          7.661784662050028,
          0.02813158799396694
        ]
      }
    },
    {
      "type": "Feature",
      "properties": {
        "norad_id": 41589,
        "name": "EUTELSAT 117 WEST B",
        "group": "eutelsat",
        "lat": 0.003878215573403247,
        "lon": -44.169895323865816,
        "alt_km": 35784.75711873344,
        "timestamp": "2025-12-22T22:44:20.622473+00:00",
        "meta_object_name": "EUTELSAT 117 WEST B",
        "meta_object_id": "2016-038B",
        "meta_epoch": "2025-12-22T10:46:33.521376",
        "meta_mean_motion": 1.00271447,
        "meta_eccentricity": 3.908e-05,
        "meta_inclination": 0.0103,
        "meta_ra_of_asc_node": 138.8686,
        "meta_arg_of_pericenter": 145.0277,
        "meta_mean_anomaly": 212.0013,
        "meta_ephemeris_type": 0,
        "meta_classification_type": "U",
        "meta_norad_cat_id": 41589,
        "meta_element_set_no": 999,
        "meta_rev_at_epoch": 3489,
        "meta_bstar": 0,
        "meta_mean_motion_dot": 1e-07,
        "meta_mean_motion_ddot": 0,
        "tle_line1": "1 41589U 16038B   25356.44899909  .00000010  00000+0  00000+0 0  9997",
        "tle_line2": "2 41589   0.0103 138.8686 0000390 145.0277 212.0013  1.00271447 34890"
      },
      "geometry": {
        "type": "Point",
        "coordinates": [
          -44.169895323865816,
          0.003878215573403247
        ]
      }
    },
    {
      "type": "Feature",
      "properties": {
        "norad_id": 42741,
        "name": "EUTELSAT 172B",
        "group": "eutelsat",
        "lat": -0.004084705898091601,
        "lon": -115.17316436616345,
        "alt_km": 35787.31310840592,
        "timestamp": "2025-12-22T22:44:20.622484+00:00",
        "meta_object_name": "EUTELSAT 172B",
        "meta_object_id": "2017-029B",
        "meta_epoch": "2025-12-22T12:16:14.561760",
        "meta_mean_motion": 1.00270479,
        "meta_eccentricity": 2.106e-05,
        "meta_inclination": 0.0277,
        "meta_ra_of_asc_node": 116.0899,
        "meta_arg_of_pericenter": 302.1342,
        "meta_mean_anomaly": 29.1567,
        "meta_ephemeris_type": 0,
        "meta_classification_type": "U",
        "meta_norad_cat_id": 42741,
        "meta_element_set_no": 999,
        "meta_rev_at_epoch": 3195,
        "meta_bstar": 0,
        "meta_mean_motion_dot": 1.6e-07,
        "meta_mean_motion_ddot": 0,
        "tle_line1": "1 42741U 17029B   25356.51127965  .00000016  00000+0  00000+0 0  9999",
        "tle_line2": "2 42741   0.0277 116.0899 0000210 302.1342  29.1567  1.00270479 31956"
      },
      "geometry": {
        "type": "Point",
        "coordinates": [
          -115.17316436616345,
          -0.004084705898091601
        ]
      }
    }
  ]
}